[Satellite]
VERSION=1.1
NAME=NUDTSAT
NICKNAME=NUDTSAT
TLE1=1 42787U 17036Y   20157.88445595  .00001509  00000-0  64129-4 0  9999
TLE2=2 42787  97.3058 213.4984 0013128  62.7393 297.5184 15.24494491163939
STATUS=0
